P/2011 Q3 (McNaught),e,6.0528,32.0320,310.9580,4.970831,0.0889325,0.53162780,229.4532,08/14.0/2018,2000,g 13.5,4.0
# From MPC 79342
C/2011 Q4 (SWAN),e,147.9693,251.9728,1.9316,41.41576,0.0036979,0.97278283,0.0000,09/18.5305/2011,2000,g 12.5,4.0
# From MPC 88325
C/2011 R1 (McNaught),e,116.1604,221.3085,308.9097,13410,0.0000006,0.99984398,0.0000,10/17.5228/2012,2000,g  6.5,4.0
# From MPC 90269
P/2011 R3 (Novichonok-Gerke),e,19.2355,190.2921,223.8840,4.799224,0.0937449,0.26742067,218.4519,08/14.0/2018,2000,g 11.0,4.0
# From MPC 98558
P/2011 S1 (Gibbs),e,2.6828,218.9520,193.0662,8.605896,0.0390400,0.19967157,56.8285,08/14.0/2018,2000,g  8.0,4.0
# From MPC 80897
C/2011 S2 (Kowalski),e,17.5128,288.0843,192.3496,16.41763,0.0148163,0.93133265,36.8380,08/14.0/2018,2000,g 15.5,4.0
# From MPC 78186
P/2011 U1 (PANSTARRS),e,15.2307,134.9680,353.3392,4.055922,0.1206618,0.41658933,271.1292,08/14.0/2018,2000,g 14.5,4.0
# From MPC105540
P/2011 U2 (Bressi),e,9.9469,263.9801,139.7942,5.100963,0.0855511,0.10344872,210.1707,08/14.0/2018,2000,g 10.0,4.0
# From MPC 78186
C/2011 U3 (PANSTARRS),e,116.7062,228.1510,287.7858,2051,0.0000106,0.99947390,0.0000,06/01.6224/2012,2000,g 14.0,4.0
# From MPC 79022
P/2011 UA134 (Spacewatch-PANSTARRS),e,10.4712,40.5619,32.5509,5.596995,0.0744340,0.62949207,182.3268,08/14.0/2018,2000,g 17.5,4.0
# From MPC 88325
C/2011 UF305 (LINEAR),e,94.0473,297.6644,122.0173,3396,0.0000050,0.99936927,0.0000,07/21.3216/2012,2000,g  9.0,4.0
# From MPC 77406
P/2011 V1 (Boattini),e,7.3803,46.8688,269.1625,3.851413,0.1303989,0.55039174,353.6231,08/14.0/2018,2000,g 15.5,4.0
# From MPC 82718
P/2011 W1 (PANSTARRS),e,3.7179,161.7947,282.7486,4.659197,0.0980026,0.28616803,235.0616,08/14.0/2018,2000,g 11.5,4.0
# From MPC 80897
P/2011 W2 (Rinner),e,13.7583,231.9594,221.2231,3.808172,0.1326262,0.39253009,328.3540,08/14.0/2018,2000,g 13.0,4.0
# From MPC 77807
C/2011 W3 (Lovejoy),e,136.1960,329.8605,56.1784,71.28245,0.0016377,0.99990701,0.0000,12/15.0432/2011,2000,g 14.5,4.0
# From MPC109140
P/2011 WG113 (PANSTARRS),e,9.8373,87.4363,66.4076,3.186343,0.1732867,0.57348522,31.9240,08/14.0/2018,2000,g 17.0,4.0
# From MPC 79342
P/2011 Y2 (Boattini),e,6.3697,309.3895,132.0395,6.239610,0.0632365,0.70954928,148.1699,08/14.0/2018,2000,g 15.0,4.0
# From MPC 79342
C/2011 Y3 (Boattini),e,26.5048,84.8954,340.5270,11.75341,0.0244601,0.70155691,62.4690,08/14.0/2018,2000,g  8.0,4.0
# From MPC 93583
C/2012 A1 (PANSTARRS),h,12/03.8519/2013,120.9341,278.0547,192.0548,1.002022,7.599787,2000,6.0,4.0
# From MPC 91611
C/2012 A2 (LINEAR),e,125.8780,191.3968,101.6139,1238,0.0000226,0.99715126,0.0000,11/06.7309/2012,2000,g  8.5,4.0
# From MPC 80898
P/2012 A3 (SOHO),e,11.0915,175.1670,219.2711,2.584634,0.2371950,0.77169774,210.3700,08/14.0/2018,2000,g 17.0,4.0
# From MPC 94669
P/2012 B1 (PANSTARRS),e,7.6227,36.1581,162.5520,6.519237,0.0592119,0.41154441,109.3320,08/14.0/2018,2000,g  9.0,4.0
# From MPC 82719
C/2012 B3 (La Sagra),e,107.0836,252.9672,50.8344,41572,0.0000001,0.99991469,0.0000,12/06.9407/2011,2000,g 10.0,4.0
# From MPC 83519
C/2012 BJ98 (Lemmon),e,2.6340,123.9769,73.1814,17.28054,0.0137204,0.87469689,29.5416,08/14.0/2018,2000,g 12.5,4.0
# From MPC 89309
C/2012 C1 (McNaught),e,96.1818,300.5993,279.8602,2150,0.0000099,0.99775131,0.0000,02/04.3863/2013,2000,g  7.5,4.0
# From MPC 80898
C/2012 C2 (Bruenjes),h,03/12.4928/2012,162.7298,117.8343,62.3307,1.002633,0.792095,2000,17.0,4.0
# From MPC 78590
P/2012 C3 (PANSTARRS),e,9.0920,135.3677,344.9542,9.748681,0.0323806,0.63011148,359.9758,10/06.0/2011,2000,g 13.0,4.0
# From MPC 84022
C/2012 CH17 (MOSS),e,27.7738,125.7155,138.0685,4416,0.0000034,0.99970861,0.0000,09/29.9706/2012,2000,g 11.0,4.0
# From MPC 84022
C/2012 E1 (Hill),e,122.6165,286.2492,48.8609,1161,0.0000249,0.99352647,0.0000,07/01.4858/2011,2000,g  6.5,4.0
# From MPC 82318
C/2012 E3 (PANSTARRS),e,105.6068,5.5415,103.5905,204.5496,0.0003369,0.98119946,0.0000,05/09.0303/2011,2000,g 10.0,4.0
# From MPC 79868
C/2012 F1 (Gibbs),e,159.5714,130.4768,301.0976,73.37078,0.0015683,0.96501585,3.7142,08/14.0/2018,2000,g 14.0,4.0
# From MPC 84931
P/2012 F2 (PANSTARRS),e,14.7439,227.0892,33.1225,6.323845,0.0619772,0.54327578,120.8596,08/14.0/2018,2000,g 12.0,4.0
# From MPC107683
C/2012 F3 (PANSTARRS),h,04/07.3180/2015,11.3473,164.5935,104.1002,1.003679,3.458517,2000,6.5,4.0
# From MPC 90766
C/2012 F6 (Lemmon),e,82.6535,332.4828,304.8238,403.6080,0.0001216,0.99820725,0.0000,03/24.8945/2013,2000,g 10.0,4.0
# From MPC 79344
P/2012 G1 (PANSTARRS),e,11.6925,282.5440,286.1149,4.172871,0.1156250,0.38072240,359.9500,06/01.0/2012,2000,g 15.0,4.0
# From MPC 80046
C/2012 H2 (McNaught),e,92.7991,184.1383,296.0586,16.11260,0.0152390,0.89249319,34.9861,08/14.0/2018,2000,g 15.5,4.0
# From MPC109140
C/2012 J1 (Catalina),h,12/06.1643/2012,34.0941,235.1585,147.2120,1.000675,3.151421,2000,8.0,4.0
# From MPC103843
C/2012 K1 (PANSTARRS),h,08/28.2248/2014,142.3269,317.7827,203.0888,1.000476,1.050681,2000,5.6,3.2
# From MPC 80898
P/2012 K3 (Gibbs),e,13.1912,125.8509,172.1813,3.624033,0.1428617,0.42390464,307.3288,08/14.0/2018,2000,g 15.0,4.0
# From MPC103843
C/2012 K5 (LINEAR),e,92.7714,279.3526,139.3084,650.4055,0.0000594,0.99824431,0.0000,11/28.4502/2012,2000,g 12.0,4.0
# From MPC 94278
C/2012 K6 (McNaught),e,135.2182,206.9228,339.0181,1842,0.0000125,0.99817106,0.0000,05/20.6456/2013,2000,g  8.5,4.0
# From MPC100577
C/2012 K8 (Lemmon),e,106.1537,312.7755,75.9115,8235,0.0000013,0.99921454,0.0000,08/19.4723/2014,2000,g  6.0,4.0
# From MPC 88326
C/2012 L1 (LINEAR),e,87.2316,271.9618,140.1551,569.0943,0.0000726,0.99603202,0.0000,12/24.9660/2012,2000,g 10.5,4.0
# From MPC 88326
C/2012 L2 (LINEAR),e,70.8228,270.3543,205.8669,533.6845,0.0000799,0.99715886,0.0000,05/07.5761/2013,2000,g 10.0,4.0
# From MPC 84023
C/2012 L3 (LINEAR),e,134.1245,53.4092,106.9505,282.0126,0.0002081,0.98918751,0.0000,06/09.1484/2012,2000,g 13.0,4.0
# From MPC108592
C/2012 LP26 (Palomar),h,08/17.1910/2015,25.3632,153.9745,145.1807,1.001848,6.536205,2000,6.5,4.0
# From MPC 88326
P/2012 NJ (La Sagra),e,84.5194,315.6439,338.2696,8.452338,0.0401087,0.84772763,90.4023,08/14.0/2018,2000,g 14.5,4.0
# From MPC 84625
C/2012 OP (Siding Spring),e,114.8531,267.2353,351.3724,708.1894,0.0000523,0.99489619,0.0000,12/03.1272/2012,2000,g 13.5,2.0
# From MPC 81470
P/2012 O1 (McNaught),e,7.4327,91.9886,238.1707,3.539862,0.1479873,0.59454072,330.3631,08/14.0/2018,2000,g 17.5,4.0
# From MPC 80899
P/2012 O2 (McNaught),e,24.4825,120.7016,183.3574,3.621407,0.1430171,0.53297647,322.0891,08/14.0/2018,2000,g 17.0,4.0
# From MPC 82720
P/2012 O3 (McNaught),e,16.5926,336.3972,344.6471,4.578915,0.1005912,0.64605315,220.6230,08/14.0/2018,2000,g 16.5,4.0
# From MPC 90767
C/2012 Q1 (Kowalski),e,45.2115,184.4116,138.9779,26.04148,0.0074166,0.63660720,17.6676,08/14.0/2018,2000,g  4.0,4.0
# From MPC 89726
C/2012 S1 (ISON),h,11/28.6308/2013,64.1216,295.0368,345.8663,1.000254,0.012505,2000,8.5,3.2
# From MPC 82720
P/2012 S2 (La Sagra),e,8.6888,51.1888,312.5866,4.405218,0.1065990,0.69096629,234.6826,08/14.0/2018,2000,g 17.0,4.0
# From MPC 88327
C/2012 S3 (PANSTARRS),e,113.0187,121.1975,183.6560,3468,0.0000048,0.99933388,0.0000,08/29.9241/2013,2000,g 10.0,4.0
# From MPC 88327
C/2012 S4 (PANSTARRS),e,126.5606,173.0698,163.3969,3380,0.0000050,0.99871683,0.0000,06/26.6349/2013,2000,g  8.5,4.0
# From MPC 82720
P/2012 SB6 (Lemmon),e,10.9390,8.4824,13.6476,3.839813,0.1309903,0.40480679,271.6620,08/14.0/2018,2000,g 14.0,4.0
# From MPC 82320
P/2012 T2 (PANSTARRS),e,12.5538,73.7415,310.7456,5.744324,0.0715889,0.15965731,138.9332,08/14.0/2018,2000,g 10.0,4.0
# From MPC 80900
P/2012 T3 (PANSTARRS),e,9.5604,114.3982,195.4045,6.156586,0.0645200,0.61611046,148.4696,08/14.0/2018,2000,g 15.0,4.0
# From MPC 84023
C/2012 T4 (McNaught),e,24.1755,99.4122,219.7289,119.1160,0.0007581,0.98368680,0.0000,10/11.6914/2012,2000,g 13.5,4.0
# From MPC 84023
C/2012 T5 (Bressi),h,02/24.1659/2013,72.2833,230.2141,318.3180,1.000440,0.326758,2000,13.0,4.0
# From MPC 82720
C/2012 T6 (Kowalski),e,33.3550,186.1138,197.9018,14.04010,0.0187348,0.87397246,40.8781,08/14.0/2018,2000,g 15.0,4.0
# From MPC 87914
P/2012 TK8 (Tenagra),e,6.3160,289.0109,126.8756,4.150880,0.1165450,0.27133489,223.9283,08/14.0/2018,2000,g 13.0,4.0
# From MPC 95208
C/2012 U1 (PANSTARRS),e,56.3553,26.9628,70.2030,1422,0.0000184,0.99629055,0.0000,07/04.0957/2014,2000,g  7.5,4.0
# From MPC 82720
P/2012 U2 (PANSTARRS),e,10.7366,185.2356,228.5396,7.153012,0.0515194,0.49705765,108.3774,08/14.0/2018,2000,g 12.5,4.0
# From MPC 84024
P/2012 US27 (Siding Spring),e,39.3447,49.1693,0.9630,5.164129,0.0839863,0.64745097,169.6478,08/14.0/2018,2000,g 13.5,4.0
# From MPC 84932
C/2012 V1 (PANSTARRS),e,157.8300,85.2834,123.1441,1109,0.0000267,0.99811374,0.0000,07/19.2005/2013,2000,g 12.0,4.0
# From MPC 88695
C/2012 V2 (LINEAR),e,67.1466,262.1675,217.4717,537.2442,0.0000791,0.99726816,0.0000,08/13.6751/2013,2000,g  9.0,4.0
# From MPC 82721
P/2012 WA34 (Lemmon-PANSTARRS),e,6.1222,94.5074,352.7044,4.784039,0.0941916,0.33683195,191.3929,08/14.0/2018,2000,g 13.5,4.0
# From MPC108592
C/2012 X1 (LINEAR),e,44.3565,112.9606,132.2431,164.0837,0.0004689,0.99025902,0.0000,02/22.2048/2014,2000,g  4.8,3.6
# From MPC 88327
C/2012 X2 (PANSTARRS),e,34.1005,271.0687,215.7620,20.50082,0.0106181,0.76762543,20.8487,08/14.0/2018,2000,g  9.0,4.0
# From MPC 83521
C/2012 Y1 (LINEAR),e,20.9076,193.1556,269.0907,37.48892,0.0042939,0.94581693,8.7455,08/14.0/2018,2000,g 15.0,4.0
# From MPC 83521
C/2012 Y3 (McNaught),e,73.6262,122.7175,235.6311,27.82187,0.0067162,0.93636371,14.6565,08/14.0/2018,2000,g 11.0,4.0
# From MPC103843
C/2013 A1 (Siding Spring),e,129.0814,300.9519,2.4440,3384,0.0000050,0.99958539,0.0000,10/24.3889/2014,2000,g  8.2,2.4
# From MPC 84024
P/2013 A2 (Scotti),e,3.3634,355.8228,134.6547,4.009449,0.1227657,0.45454608,247.4335,08/14.0/2018,2000,g 15.5,4.0
# From MPC 82721
P/2013 AL76 (Catalina),e,144.8020,145.9430,27.2229,6.501924,0.0594486,0.68588265,122.9379,08/14.0/2018,2000,g 16.0,4.0
# From MPC 87915
